<?xml version="1.0" encoding="UTF-8"?>
<ndm xmlns:xsi="http://www.w3.org/2001/XMLSchema-instance" xsi:noNamespaceSchemaLocation="https://sanaregistry.org/r/ndmxml_unqualified/ndmxml-2.0.0-master-2.0.xsd">
<omm id="CCSDS_OMM_VERS" version="2.0">
<header><CREATION_DATE/><ORIGINATOR/></header><body><segment><metadata><OBJECT_NAME>KUIPER-00039</OBJECT_NAME><OBJECT_ID>2025-134A</OBJECT_ID><CENTER_NAME>EARTH</CENTER_NAME><REF_FRAME>TEME</REF_FRAME><TIME_SYSTEM>UTC</TIME_SYSTEM><MEAN_ELEMENT_THEORY>SGP4</MEAN_ELEMENT_THEORY></metadata><data><meanElements><EPOCH>2025-10-07T22:41:05.442432</EPOCH><MEAN_MOTION>14.79898532</MEAN_MOTION><ECCENTRICITY>.00125248</ECCENTRICITY><INCLINATION>51.9001</INCLINATION><RA_OF_ASC_NODE>188.5097</RA_OF_ASC_NODE><ARG_OF_PERICENTER>146.3661</ARG_OF_PERICENTER><MEAN_ANOMALY>213.8099</MEAN_ANOMALY></meanElements><tleParameters><EPHEMERIS_TYPE>0</EPHEMERIS_TYPE><CLASSIFICATION_TYPE>U</CLASSIFICATION_TYPE><NORAD_CAT_ID>64500</NORAD_CAT_ID><ELEMENT_SET_NO>999</ELEMENT_SET_NO><REV_AT_EPOCH>1745</REV_AT_EPOCH><BSTAR>-.15701265E-3</BSTAR><MEAN_MOTION_DOT>-.1422E-4</MEAN_MOTION_DOT><MEAN_MOTION_DDOT>0</MEAN_MOTION_DDOT></tleParameters></data></segment></body></omm>
<omm id="CCSDS_OMM_VERS" version="2.0">
<header><CREATION_DATE/><ORIGINATOR/></header><body><segment><metadata><OBJECT_NAME>KUIPER-00040</OBJECT_NAME><OBJECT_ID>2025-134B</OBJECT_ID><CENTER_NAME>EARTH</CENTER_NAME><REF_FRAME>TEME</REF_FRAME><TIME_SYSTEM>UTC</TIME_SYSTEM><MEAN_ELEMENT_THEORY>SGP4</MEAN_ELEMENT_THEORY></metadata><data><meanElements><EPOCH>2025-10-07T22:23:17.941920</EPOCH><MEAN_MOTION>14.79927752</MEAN_MOTION><ECCENTRICITY>.00185986</ECCENTRICITY><INCLINATION>51.8996</INCLINATION><RA_OF_ASC_NODE>199.7302</RA_OF_ASC_NODE><ARG_OF_PERICENTER>125.1606</ARG_OF_PERICENTER><MEAN_ANOMALY>235.1102</MEAN_ANOMALY></meanElements><tleParameters><EPHEMERIS_TYPE>0</EPHEMERIS_TYPE><CLASSIFICATION_TYPE>U</CLASSIFICATION_TYPE><NORAD_CAT_ID>64501</NORAD_CAT_ID><ELEMENT_SET_NO>999</ELEMENT_SET_NO><REV_AT_EPOCH>1729</REV_AT_EPOCH><BSTAR>.99844396E-3</BSTAR><MEAN_MOTION_DOT>.7415E-4</MEAN_MOTION_DOT><MEAN_MOTION_DDOT>0</MEAN_MOTION_DDOT></tleParameters></data></segment></body></omm>
<omm id="CCSDS_OMM_VERS" version="2.0">
<header><CREATION_DATE/><ORIGINATOR/></header><body><segment><metadata><OBJECT_NAME>KUIPER-00041</OBJECT_NAME><OBJECT_ID>2025-134C</OBJECT_ID><CENTER_NAME>EARTH</CENTER_NAME><REF_FRAME>TEME</REF_FRAME><TIME_SYSTEM>UTC</TIME_SYSTEM><MEAN_ELEMENT_THEORY>SGP4</MEAN_ELEMENT_THEORY></metadata><data><meanElements><EPOCH>2025-10-07T04:32:15.114912</EPOCH><MEAN_MOTION>14.79899761</MEAN_MOTION><ECCENTRICITY>.00150268</ECCENTRICITY><INCLINATION>51.8979</INCLINATION><RA_OF_ASC_NODE>204.3790</RA_OF_ASC_NODE><ARG_OF_PERICENTER>117.8191</ARG_OF_PERICENTER><MEAN_ANOMALY>242.4296</MEAN_ANOMALY></meanElements><tleParameters><EPHEMERIS_TYPE>0</EPHEMERIS_TYPE><CLASSIFICATION_TYPE>U</CLASSIFICATION_TYPE><NORAD_CAT_ID>64502</NORAD_CAT_ID><ELEMENT_SET_NO>999</ELEMENT_SET_NO><REV_AT_EPOCH>1716</REV_AT_EPOCH><BSTAR>.88568216E-3</BSTAR><MEAN_MOTION_DOT>.6541E-4</MEAN_MOTION_DOT><MEAN_MOTION_DDOT>0</MEAN_MOTION_DDOT></tleParameters></data></segment></body></omm>
<omm id="CCSDS_OMM_VERS" version="2.0">
<header><CREATION_DATE/><ORIGINATOR/></header><body><segment><metadata><OBJECT_NAME>KUIPER-00042</OBJECT_NAME><OBJECT_ID>2025-134D</OBJECT_ID><CENTER_NAME>EARTH</CENTER_NAME><REF_FRAME>TEME</REF_FRAME><TIME_SYSTEM>UTC</TIME_SYSTEM><MEAN_ELEMENT_THEORY>SGP4</MEAN_ELEMENT_THEORY></metadata><data><meanElements><EPOCH>2025-10-07T22:27:13.436352</EPOCH><MEAN_MOTION>14.79843964</MEAN_MOTION><ECCENTRICITY>.00141065</ECCENTRICITY><INCLINATION>51.8988</INCLINATION><RA_OF_ASC_NODE>197.0747</RA_OF_ASC_NODE><ARG_OF_PERICENTER>128.6659</ARG_OF_PERICENTER><MEAN_ANOMALY>231.5568</MEAN_ANOMALY></meanElements><tleParameters><EPHEMERIS_TYPE>0</EPHEMERIS_TYPE><CLASSIFICATION_TYPE>U</CLASSIFICATION_TYPE><NORAD_CAT_ID>64503</NORAD_CAT_ID><ELEMENT_SET_NO>999</ELEMENT_SET_NO><REV_AT_EPOCH>1733</REV_AT_EPOCH><BSTAR>.88459655E-3</BSTAR><MEAN_MOTION_DOT>.6522E-4</MEAN_MOTION_DOT><MEAN_MOTION_DDOT>0</MEAN_MOTION_DDOT></tleParameters></data></segment></body></omm>
<omm id="CCSDS_OMM_VERS" version="2.0">
<header><CREATION_DATE/><ORIGINATOR/></header><body><segment><metadata><OBJECT_NAME>KUIPER-00043</OBJECT_NAME><OBJECT_ID>2025-134E</OBJECT_ID><CENTER_NAME>EARTH</CENTER_NAME><REF_FRAME>TEME</REF_FRAME><TIME_SYSTEM>UTC</TIME_SYSTEM><MEAN_ELEMENT_THEORY>SGP4</MEAN_ELEMENT_THEORY></metadata><data><meanElements><EPOCH>2025-10-07T04:49:10.657056</EPOCH><MEAN_MOTION>14.80040520</MEAN_MOTION><ECCENTRICITY>.0004645</ECCENTRICITY><INCLINATION>51.9021</INCLINATION><RA_OF_ASC_NODE>192.7548</RA_OF_ASC_NODE><ARG_OF_PERICENTER>122.3811</ARG_OF_PERICENTER><MEAN_ANOMALY>237.7602</MEAN_ANOMALY></meanElements><tleParameters><EPHEMERIS_TYPE>0</EPHEMERIS_TYPE><CLASSIFICATION_TYPE>U</CLASSIFICATION_TYPE><NORAD_CAT_ID>64504</NORAD_CAT_ID><ELEMENT_SET_NO>999</ELEMENT_SET_NO><REV_AT_EPOCH>1733</REV_AT_EPOCH><BSTAR>.12163009E-2</BSTAR><MEAN_MOTION_DOT>.9088E-4</MEAN_MOTION_DOT><MEAN_MOTION_DDOT>0</MEAN_MOTION_DDOT></tleParameters></data></segment></body></omm>
<omm id="CCSDS_OMM_VERS" version="2.0">
<header><CREATION_DATE/><ORIGINATOR/></header><body><segment><metadata><OBJECT_NAME>KUIPER-00044</OBJECT_NAME><OBJECT_ID>2025-134F</OBJECT_ID><CENTER_NAME>EARTH</CENTER_NAME><REF_FRAME>TEME</REF_FRAME><TIME_SYSTEM>UTC</TIME_SYSTEM><MEAN_ELEMENT_THEORY>SGP4</MEAN_ELEMENT_THEORY></metadata><data><meanElements><EPOCH>2025-10-07T04:30:00.533088</EPOCH><MEAN_MOTION>14.79950254</MEAN_MOTION><ECCENTRICITY>.00138454</ECCENTRICITY><INCLINATION>51.8973</INCLINATION><RA_OF_ASC_NODE>205.3806</RA_OF_ASC_NODE><ARG_OF_PERICENTER>124.0768</ARG_OF_PERICENTER><MEAN_ANOMALY>236.1511</MEAN_ANOMALY></meanElements><tleParameters><EPHEMERIS_TYPE>0</EPHEMERIS_TYPE><CLASSIFICATION_TYPE>U</CLASSIFICATION_TYPE><NORAD_CAT_ID>64505</NORAD_CAT_ID><ELEMENT_SET_NO>999</ELEMENT_SET_NO><REV_AT_EPOCH>1715</REV_AT_EPOCH><BSTAR>.43246233E-2</BSTAR><MEAN_MOTION_DOT>.3297E-3</MEAN_MOTION_DOT><MEAN_MOTION_DDOT>0</MEAN_MOTION_DDOT></tleParameters></data></segment></body></omm>
<omm id="CCSDS_OMM_VERS" version="2.0">
<header><CREATION_DATE/><ORIGINATOR/></header><body><segment><metadata><OBJECT_NAME>KUIPER-00046</OBJECT_NAME><OBJECT_ID>2025-134G</OBJECT_ID><CENTER_NAME>EARTH</CENTER_NAME><REF_FRAME>TEME</REF_FRAME><TIME_SYSTEM>UTC</TIME_SYSTEM><MEAN_ELEMENT_THEORY>SGP4</MEAN_ELEMENT_THEORY></metadata><data><meanElements><EPOCH>2025-10-07T19:01:31.662048</EPOCH><MEAN_MOTION>14.79487690</MEAN_MOTION><ECCENTRICITY>.00126912</ECCENTRICITY><INCLINATION>51.8988</INCLINATION><RA_OF_ASC_NODE>199.1084</RA_OF_ASC_NODE><ARG_OF_PERICENTER>136.1253</ARG_OF_PERICENTER><MEAN_ANOMALY>224.0719</MEAN_ANOMALY></meanElements><tleParameters><EPHEMERIS_TYPE>0</EPHEMERIS_TYPE><CLASSIFICATION_TYPE>U</CLASSIFICATION_TYPE><NORAD_CAT_ID>64506</NORAD_CAT_ID><ELEMENT_SET_NO>999</ELEMENT_SET_NO><REV_AT_EPOCH>1729</REV_AT_EPOCH><BSTAR>.90305424E-3</BSTAR><MEAN_MOTION_DOT>.6604E-4</MEAN_MOTION_DOT><MEAN_MOTION_DDOT>0</MEAN_MOTION_DDOT></tleParameters></data></segment></body></omm>
<omm id="CCSDS_OMM_VERS" version="2.0">
<header><CREATION_DATE/><ORIGINATOR/></header><body><segment><metadata><OBJECT_NAME>KUIPER-00047</OBJECT_NAME><OBJECT_ID>2025-134H</OBJECT_ID><CENTER_NAME>EARTH</CENTER_NAME><REF_FRAME>TEME</REF_FRAME><TIME_SYSTEM>UTC</TIME_SYSTEM><MEAN_ELEMENT_THEORY>SGP4</MEAN_ELEMENT_THEORY></metadata><data><meanElements><EPOCH>2025-10-08T00:00:02.999808</EPOCH><MEAN_MOTION>15.24817990</MEAN_MOTION><ECCENTRICITY>.00114759</ECCENTRICITY><INCLINATION>51.8676</INCLINATION><RA_OF_ASC_NODE>178.1278</RA_OF_ASC_NODE><ARG_OF_PERICENTER>146.9622</ARG_OF_PERICENTER><MEAN_ANOMALY>107.1180</MEAN_ANOMALY></meanElements><tleParameters><EPHEMERIS_TYPE>0</EPHEMERIS_TYPE><CLASSIFICATION_TYPE>U</CLASSIFICATION_TYPE><NORAD_CAT_ID>64507</NORAD_CAT_ID><ELEMENT_SET_NO>999</ELEMENT_SET_NO><REV_AT_EPOCH>589</REV_AT_EPOCH><BSTAR>-.21498967E-1</BSTAR><MEAN_MOTION_DOT>-.507226E-2</MEAN_MOTION_DOT><MEAN_MOTION_DDOT>0</MEAN_MOTION_DDOT></tleParameters></data></segment></body></omm>
<omm id="CCSDS_OMM_VERS" version="2.0">
<header><CREATION_DATE/><ORIGINATOR/></header><body><segment><metadata><OBJECT_NAME>KUIPER-00048</OBJECT_NAME><OBJECT_ID>2025-134J</OBJECT_ID><CENTER_NAME>EARTH</CENTER_NAME><REF_FRAME>TEME</REF_FRAME><TIME_SYSTEM>UTC</TIME_SYSTEM><MEAN_ELEMENT_THEORY>SGP4</MEAN_ELEMENT_THEORY></metadata><data><meanElements><EPOCH>2025-10-07T18:01:20.376192</EPOCH><MEAN_MOTION>15.25780835</MEAN_MOTION><ECCENTRICITY>.00038602</ECCENTRICITY><INCLINATION>51.8788</INCLINATION><RA_OF_ASC_NODE>177.9742</RA_OF_ASC_NODE><ARG_OF_PERICENTER>175.3002</ARG_OF_PERICENTER><MEAN_ANOMALY>184.8016</MEAN_ANOMALY></meanElements><tleParameters><EPHEMERIS_TYPE>0</EPHEMERIS_TYPE><CLASSIFICATION_TYPE>U</CLASSIFICATION_TYPE><NORAD_CAT_ID>64508</NORAD_CAT_ID><ELEMENT_SET_NO>999</ELEMENT_SET_NO><REV_AT_EPOCH>1758</REV_AT_EPOCH><BSTAR>-.22314026E-2</BSTAR><MEAN_MOTION_DOT>-.57707E-3</MEAN_MOTION_DOT><MEAN_MOTION_DDOT>0</MEAN_MOTION_DDOT></tleParameters></data></segment></body></omm>

</ndm>
